YAOGAN-35 05A           
1 53760U 22109A   26066.58678890  .00000206  00000+0  10143-4 0  9996
2 53760  35.0054 257.8287 0007542 166.4261 193.6657 15.22860926195118
YAOGAN-43 01C           
1 60460U 24148C   26068.45804962  .00013877  00000+0  57211-3 0  9999
2 60460  35.0004  69.8276 0004894  10.3083 349.7732 15.23248363 86925
