[{"OBJECT_NAME":"YAOGAN-35 05A","OBJECT_ID":"2022-109A","EPOCH":"2026-03-07T14:04:58.560960","MEAN_MOTION":15.22860926,"ECCENTRICITY":0.0007542,"INCLINATION":35.0054,"RA_OF_ASC_NODE":257.8287,"ARG_OF_PERICENTER":166.4261,"MEAN_ANOMALY":193.6657,"EPHEMERIS_TYPE":0,"CLASSIFICATION_TYPE":"U","NORAD_CAT_ID":53760,"ELEMENT_SET_NO":999,"REV_AT_EPOCH":19511,"BSTAR":1.0143e-5,"MEAN_MOTION_DOT":2.06e-6,"MEAN_MOTION_DDOT":0},{"OBJECT_NAME":"YAOGAN-43 01C","OBJECT_ID":"2024-148C","EPOCH":"2026-03-09T10:59:35.487168","MEAN_MOTION":15.23248363,"ECCENTRICITY":0.00048948,"INCLINATION":35.0004,"RA_OF_ASC_NODE":69.8276,"ARG_OF_PERICENTER":10.3083,"MEAN_ANOMALY":349.7732,"EPHEMERIS_TYPE":0,"CLASSIFICATION_TYPE":"U","NORAD_CAT_ID":60460,"ELEMENT_SET_NO":999,"REV_AT_EPOCH":8692,"BSTAR":0.00057210581,"MEAN_MOTION_DOT":0.00013877,"MEAN_MOTION_DDOT":0}]
